NORAD_CAT_ID,OBJECT_NAME,OBJECT_TYPE,EPOCH,MEAN_MOTION,ECCENTRICITY,INCLINATION,RA_OF_ASC_NODE,ARG_OF_PERICENTER,MEAN_ANOMALY,BSTAR,MEAN_MOTION_DOT,MEAN_MOTION_DDOT,TLE_LINE0,TLE_LINE1,TLE_LINE2,SEMIMAJOR_AXIS,PERIOD,APOGEE,PERIGEE,DECAYED
52667.0,STARLINK-4076,PAYLOAD,2022-07-08 22:00:01,15.24832391,0.000172,53.2173,49.146,48.6149,174.7145,-0.030791,-0.0072245,0.0,0 STARLINK-4076,1 52667U 22053M   22189.91668981 -.00722450  00000-0 -30791-1 0  9991,2 52667  53.2173  49.1460 0001720  48.6149 174.7145 15.24832391  1306,6869.426,94.437,492.472,490.109,0.0
52667.0,STARLINK-4076,PAYLOAD,2022-07-09 14:00:01,15.23812133,0.0001569,53.2174,46.0809,50.3506,233.3064,-0.031705,-0.00721501,0.0,0 STARLINK-4076,1 52667U 22053M   22190.58334491 -.00721501  00000-0 -31705-1 0  9994,2 52667  53.2174  46.0809 0001569  50.3506 233.3064 15.23812133  8870,6872.4919999999975,94.5,495.435,493.278,0.0
52667.0,STARLINK-4076,PAYLOAD,2022-07-09 20:00:01,15.23428716,0.0001729,53.2174,44.9352,47.6764,167.9946,-0.032026,-0.00720584,0.0,0 STARLINK-4076,1 52667U 22053M   22190.83334491 -.00720584  00000-0 -32026-1 0  9999,2 52667  53.2174  44.9352 0001729  47.6764 167.9946 15.23428716  1305,6873.645,94.524,496.698,494.321,0.0
52667.0,STARLINK-4076,PAYLOAD,2022-07-10 14:00:01,15.22281428,0.0001496,53.2175,41.4954,49.8321,319.8145,-0.033114,-0.00720059,0.0,0 STARLINK-4076,1 52667U 22053M   22191.58334491 -.00720059  00000-0 -33114-1 0  9998,2 52667  53.2175  41.4954 0001496  49.8321 319.8145 15.22281428  1305,6877.098000000001,94.595,499.992,497.934,0.0
52667.0,STARLINK-4076,PAYLOAD,2022-07-10 22:00:00,15.2177506,0.0001756,53.2175,39.971,39.837,357.2448,-0.033941,-0.00726616,0.0,0 STARLINK-4076,1 52667U 22053M   22191.91667824 -.00726616  00000-0 -33941-1 0  9997,2 52667  53.2175  39.9710 0001756  39.8370 357.2448 15.21775060  1300,6878.623000000001,94.626,501.696,499.281,0.0
52667.0,STARLINK-4076,PAYLOAD,2022-07-11 14:00:01,15.20752204,0.0001624,53.2175,36.9203,47.5454,42.5752,-0.034703,-0.00721222,0.0,0 STARLINK-4076,1 52667U 22053M   22192.58334491 -.00721222  00000-0 -34703-1 0  9997,2 52667  53.2175  36.9203 0001624  47.5454  42.5752 15.20752204  9187,6881.706999999999,94.69,504.69,502.455,0.0
52667.0,STARLINK-4076,PAYLOAD,2022-07-11 22:00:00,15.20244358,0.0001867,53.2175,35.3997,40.26,75.4579,-0.035432,-0.00725218,0.0,0 STARLINK-4076,1 52667U 22053M   22192.91667824 -.00725218  00000-0 -35432-1 0  9992,2 52667  53.2175  35.3997 0001867  40.2600  75.4579 15.20244358  1306,6883.24,94.722,506.39,503.82,0.0
52667.0,STARLINK-4076,PAYLOAD,2022-07-12 14:00:01,15.19222898,0.0001736,53.2176,32.3561,47.3144,117.765,-0.03634,-0.00722127,0.0,0 STARLINK-4076,1 52667U 22053M   22193.58334491 -.00722127  00000-0 -36340-1 0  9992,2 52667  53.2176  32.3561 0001736  47.3144 117.7650 15.19222898  9331,6886.325,94.785,509.385,506.994,0.0
52667.0,STARLINK-4076,PAYLOAD,2022-07-12 22:00:00,15.18712669,0.0001899,53.2175,30.839,41.9383,146.9009,-0.036868,-0.0072186,0.0,0 STARLINK-4076,1 52667U 22053M   22193.91667824 -.00721860  00000-0 -36868-1 0  9996,2 52667  53.2175  30.8390 0001899  41.9383 146.9009 15.18712669  1308,6887.8669999999975,94.817,511.04,508.424,0.0
52667.0,STARLINK-4076,PAYLOAD,2022-07-13 14:00:01,15.17693028,0.0001759,53.2175,27.8027,45.8981,188.6251,-0.037981,-0.00721977,0.0,0 STARLINK-4076,1 52667U 22053M   22194.58334491 -.00721977  00000-0 -37981-1 0  9997,2 52667  53.2175  27.8027 0001759  45.8981 188.6251 15.17693028  9488,6890.9519999999975,94.881,514.029,511.605,0.0
52667.0,STARLINK-4076,PAYLOAD,2022-07-13 22:00:00,15.17182202,0.0001662,53.2175,26.2889,50.7637,205.6813,-0.038465,-0.0072057,0.0,0 STARLINK-4076,1 52667U 22053M   22194.91667824 -.00720570  00000-0 -38465-1 0  9999,2 52667  53.2175  26.2889 0001662  50.7637 205.6813 15.17182202  1307,6892.499,94.913,515.509,513.2180000000002,0.0
52667.0,STARLINK-4076,PAYLOAD,2022-07-14 14:00:01,15.16163209,0.0001683,53.2175,23.2598,45.0831,253.3689,-0.039694,-0.00722038,0.0,0 STARLINK-4076,1 52667U 22053M   22195.58334491 -.00722038  00000-0 -39694-1 0  9990,2 52667  53.2175  23.2598 0001683  45.0831 253.3689 15.16163209  9637,6895.5859999999975,94.977,518.612,516.2909999999998,0.0
52667.0,STARLINK-4076,PAYLOAD,2022-07-14 22:00:00,15.15652487,0.0001604,53.2175,21.7496,48.4539,270.0815,-0.040212,-0.00720923,0.0,0 STARLINK-4076,1 52667U 22053M   22195.91667824 -.00720923  00000-0 -40212-1 0  9995,2 52667  53.2175  21.7496 0001604  48.4539 270.0815 15.15652487  1305,6897.135,95.009,520.107,517.894,0.0
52667.0,STARLINK-4076,PAYLOAD,2022-07-15 14:00:01,15.14633597,0.0001651,53.2176,18.7277,43.1763,313.6896,-0.041508,-0.00722746,0.0,0 STARLINK-4076,1 52667U 22053M   22196.58334491 -.00722746  00000-0 -41508-1 0  9994,2 52667  53.2176  18.7277 0001651  43.1763 313.6896 15.14633597  1305,6900.228,95.072,523.232,520.9540000000002,0.0
52667.0,STARLINK-4076,PAYLOAD,2022-07-15 22:00:00,15.14122207,0.0001659,53.2174,17.2209,43.5779,331.5333,-0.041985,-0.00720675,0.0,0 STARLINK-4076,1 52667U 22053M   22196.91667824 -.00720675  00000-0 -41985-1 0  9998,2 52667  53.2174  17.2209 0001659  43.5779 331.5333 15.14122207  9844,6901.781999999997,95.105,524.7919999999998,522.502,0.0
52667.0,STARLINK-4076,PAYLOAD,2022-07-16 14:00:01,15.13103755,0.0001786999999999,53.2176,14.2063,39.1207,10.6439,-0.043375,-0.00723251,0.0,0 STARLINK-4076,1 52667U 22053M   22197.58334491 -.00723251  00000-0 -43375-1 0  9991,2 52667  53.2176  14.2063 0001787  39.1207  10.6439 15.13103755  1301,6904.878000000002,95.169,527.977,525.51,0.0
52667.0,STARLINK-4076,PAYLOAD,2022-07-16 20:00:01,15.12721149,0.0001813,53.2175,13.0789,39.8495,292.2772,-0.043812,-0.00722755,0.0,0 STARLINK-4076,1 52667U 22053M   22197.83334491 -.00722755  00000-0 -43812-1 0  9993,2 52667  53.2175  13.0789 0001813  39.8495 292.2772 15.12721149  9979,6906.043000000002,95.193,529.16,526.656,0.0
52667.0,STARLINK-4076,PAYLOAD,2022-07-16 22:00:00,15.12591046,0.0001844,53.2174,12.7029,38.0485,28.1237,-0.043716,-0.00718828,0.0,0 STARLINK-4076,1 52667U 22053M   22197.91667824 -.00718828  00000-0 -43716-1 0  9990,2 52667  53.2174  12.7029 0001844  38.0485  28.1237 15.12591046  1307,6906.439,95.201,529.577,527.03,0.0
52667.0,STARLINK-4076,PAYLOAD,2022-07-17 14:00:01,15.11573584,0.0001710999999999,53.2176,9.6954,45.2371,51.9113,-0.045265,-0.00723063,0.0,0 STARLINK-4076,1 52667U 22053M   22198.58334491 -.00723063  00000-0 -45265-1 0  9993,2 52667  53.2176   9.6954 0001711  45.2371  51.9113 15.11573584  1301,6909.538000000001,95.265,532.585,530.22,0.0
52667.0,STARLINK-4076,PAYLOAD,2022-07-17 22:00:00,15.11059783,0.0001784,53.2174,8.1955,42.92,68.798,-0.045472,-0.00716516,0.0,0 STARLINK-4076,1 52667U 22053M   22198.91667824 -.00716516  00000-0 -45472-1 0  9994,2 52667  53.2174   8.1955 0001784  42.9200  68.7980 15.11059783 10149,6911.104,95.297,534.202,531.736,0.0
52667.0,STARLINK-4076,PAYLOAD,2022-07-18 14:00:01,15.10043262,0.000189,53.2177,5.1952,42.6722,96.3449,-0.047187,-0.00722419,0.0,0 STARLINK-4076,1 52667U 22053M   22199.58334491 -.00722419  00000-0 -47187-1 0  9993,2 52667  53.2177   5.1952 0001890  42.6722  96.3449 15.10043262  1309,6914.205,95.362,537.377,534.763,0.0
52667.0,STARLINK-4076,PAYLOAD,2022-07-18 22:00:00,15.09480815,0.0001984,53.2174,3.6985,42.6127,109.1458,-0.039232,-0.00592863,0.0,0 STARLINK-4076,1 52667U 22053M   22199.91667824 -.00592863  00000-0 -39232-1 0  9999,2 52667  53.2174   3.6985 0001984  42.6127 109.1458 15.09480815 10296,6915.922,95.397,539.159,536.415,0.0
52667.0,STARLINK-4076,PAYLOAD,2022-07-19 06:00:00,15.09005943,0.0001704,53.2175,2.1998,54.9226,108.9482,-0.0156199999999999,-0.00241746,0.0,0 STARLINK-4076,1 52667U 22053M   22200.25001157 -.00241746  00000-0 -15620-1 0  9996,2 52667  53.2175   2.1998 0001704  54.9226 108.9482 15.09005943 10346,6917.373000000001,95.427,540.4169999999998,538.059,0.0
52667.0,STARLINK-4076,PAYLOAD,2022-07-19 14:00:01,15.08836845,0.0001739,53.2177,0.7039,46.2099,129.3474,-2.2473000000000007e-05,-6.46e-06,0.0,0 STARLINK-4076,1 52667U 22053M   22200.58334491 -.00000646  00000-0 -22473-4 0  9991,2 52667  53.2177   0.7039 0001739  46.2099 129.3474 15.08836845 10393,6917.89,95.438,540.9580000000002,538.552,0.0
52667.0,STARLINK-4076,PAYLOAD,2022-07-19 22:00:00,15.08834036,0.0001779,53.2174,359.2086,43.4494,143.7005,0.00036123,5.465e-05,0.0,0 STARLINK-4076,1 52667U 22053M   22200.91667824  .00005465  00000-0  36123-3 0  9995,2 52667  53.2174 359.2086 0001779  43.4494 143.7005 15.08834036  1307,6917.899,95.438,540.994,538.533,0.0
52667.0,STARLINK-4076,PAYLOAD,2022-07-20 14:00:01,15.08843394,0.0001798,53.2224,356.208,51.4418,158.884,-0.00077041,-0.00012529,0.0,0 STARLINK-4076,1 52667U 22053M   22201.58334491 -.00012529  00000-0 -77041-3 0  9995,2 52667  53.2224 356.2080 0001798  51.4418 158.8840 15.08843394  1301,6917.87,95.437,540.979,538.491,0.0
52667.0,STARLINK-4076,PAYLOAD,2022-07-20 22:00:01,15.08826819,0.0001888,53.222,354.7126,45.8651,176.111,0.0014995999999999,0.0002365,0.0,0 STARLINK-4076,1 52667U 22053M   22201.91668981  .00023650  00000-0  14996-2 0  9990,2 52667  53.2220 354.7126 0001888  45.8651 176.1110 15.08826819 10594,6917.920999999999,95.438,541.092,538.48,0.0
52667.0,STARLINK-4076,PAYLOAD,2022-07-21 08:00:01,15.0879888,0.0001674,53.2219,352.8405,50.9791,275.4309,0.0034966999999999,0.00055739,0.0,0 STARLINK-4076,1 52667U 22053M   22202.33334491  .00055739  00000-0  34967-2 0  9996,2 52667  53.2219 352.8405 0001674  50.9791 275.4309 15.08798880 10652,6918.005999999999,95.44,541.029,538.7130000000002,0.0
52667.0,STARLINK-4076,PAYLOAD,2022-07-21 14:00:01,15.08837874,0.0001771,53.222,351.7195,49.2137,195.9248,-0.0010937,-0.00017651,0.0,0 STARLINK-4076,1 52667U 22053M   22202.58335648 -.00017651  00000-0 -10937-2 0  9992,2 52667  53.2220 351.7195 0001771  49.2137 195.9248 15.08837874  1308,6917.887,95.438,540.977,538.5269999999998,0.0
